STARLINK-4679
1 53782U 22111K   26092.83335647  .00750379  00000+0  25057-1 0  9990
2 53782  53.2174 164.3727 0000849 104.0238 149.3669 15.28178290  5677
